GLOBALSTAR M057         
1 25943U 99058A   25006.53259249 -.00000058  00000+0  31799-3 0  9991
2 25943  51.9992  86.9733 0002663  63.1267 296.9854 12.24806554147123
GLOBALSTAR M059         
1 25944U 99058B   25006.91504101 -.00000095  00000+0 -10768-3 0  9999
2 25944  52.0026 283.4660 0001008  41.6464  36.3657 11.99972508554683
GLOBALSTAR M056         
1 25945U 99058C   25007.15911389 -.00000099  00000+0 -13088-3 0  9999
2 25945  51.9971 288.8973 0000182 223.1171 284.3766 12.04775839143260
GLOBALSTAR M031         
1 25946U 99058D   25006.91909525  .00000029  00000+0  12160-2 0  9992
2 25946  51.9930 191.5383 0001343 155.0343  12.5338 12.16027186144923
GLOBALSTAR M039         
1 25961U 99062A   25007.11173778 -.00000064  00000+0  21916-3 0  9990
2 25961  51.9860  39.3173 0002430 357.4696   2.6158 12.62315014159900
GLOBALSTAR M034         
1 25962U 99062B   25006.51499512 -.00000040  00000+0  65776-3 0  9997
2 25962  51.9886  71.6414 0014501  97.5281  10.4072 11.79439713119313
GLOBALSTAR M029         
1 25963U 99062C   25006.93325038 -.00000057  00000+0  35947-3 0  9990
2 25963  51.9773 171.5891 0003345 141.4796  22.6614 11.99890169149769
GLOBALSTAR M061         
1 25964U 99062D   25006.91092837 -.00000054  00000+0  42987-3 0  9996
2 25964  51.9776 252.5091 0006847  28.2192  55.3447 11.76770151102193
